{
  "type": "FeatureCollection",
  "features": [
    {
      "type": "Feature",
      "properties": {
        "norad_id": 33939,
        "name": "COSMOS 2251 DEB",
        "group": "cosmos-2251-debris",
        "lat": -25.7163958742175,
        "lon": 76.42152911777973,
        "alt_km": 573.4544433939645,
        "timestamp": "2025-12-10T21:43:22.484212+00:00",
        "meta_object_name": "COSMOS 2251 DEB",
        "meta_object_id": "1993-036EU",
        "meta_epoch": "2025-12-10T15:26:16.873440",
        "meta_mean_motion": 14.99623716,
        "meta_eccentricity": 0.00032376,
        "meta_inclination": 74.0066,
        "meta_ra_of_asc_node": 84.8942,
        "meta_arg_of_pericenter": 68.0914,
        "meta_mean_anomaly": 292.0616,
        "meta_ephemeris_type": 0,
        "meta_classification_type": "U",
        "meta_norad_cat_id": 33939,
        "meta_element_set_no": 999,
        "meta_rev_at_epoch": 88721,
        "meta_bstar": 0.0051413211,
        "meta_mean_motion_dot": 0.00063885,
        "meta_mean_motion_ddot": 0,
        "tle_line1": "1 33939U 93036EU  25344.64325085  .00063885  00000+0  51413-2 0  9994",
        "tle_line2": "2 33939  74.0066  84.8942 0003237  68.0914 292.0616 14.99623716887210"
      },
      "geometry": {
        "type": "Point",
        "coordinates": [
          76.42152911777973,
          -25.7163958742175
        ]
      }
    },
    {
      "type": "Feature",
      "properties": {
        "norad_id": 33940,
        "name": "COSMOS 2251 DEB",
        "group": "cosmos-2251-debris",
        "lat": 13.818681135153213,
        "lon": 151.02705847184805,
        "alt_km": 704.6985600348407,
        "timestamp": "2025-12-10T21:43:22.484222+00:00",
        "meta_object_name": "COSMOS 2251 DEB",
        "meta_object_id": "1993-036EV",
        "meta_epoch": "2025-12-10T10:15:34.473312",
        "meta_mean_motion": 14.58754872,
        "meta_eccentricity": 0.00114426,
        "meta_inclination": 74.04,
        "meta_ra_of_asc_node": 147.8996,
        "meta_arg_of_pericenter": 227.6942,
        "meta_mean_anomaly": 159.4253,
        "meta_ephemeris_type": 0,
        "meta_classification_type": "U",
        "meta_norad_cat_id": 33940,
        "meta_element_set_no": 999,
        "meta_rev_at_epoch": 88560,
        "meta_bstar": 0.0016902442,
        "meta_mean_motion_dot": 7.881e-05,
        "meta_mean_motion_ddot": 0,
        "tle_line1": "1 33940U 93036EV  25344.42748233  .00007881  00000+0  16902-2 0  9994",
        "tle_line2": "2 33940  74.0400 147.8996 0011442 227.6942 159.4253 14.58754872885601"
      },
      "geometry": {
        "type": "Point",
        "coordinates": [
          151.02705847184805,
          13.818681135153213
        ]
      }
    },
    {
      "type": "Feature",
      "properties": {
        "norad_id": 33942,
        "name": "COSMOS 2251 DEB",
        "group": "cosmos-2251-debris",
        "lat": -10.82112414322143,
        "lon": -84.92859127782617,
        "alt_km": 755.009532184913,
        "timestamp": "2025-12-10T21:43:22.484232+00:00",
        "meta_object_name": "COSMOS 2251 DEB",
        "meta_object_id": "1993-036EX",
        "meta_epoch": "2025-12-10T07:17:49.133760",
        "meta_mean_motion": 14.37983025,
        "meta_eccentricity": 0.0020201,
        "meta_inclination": 74.0366,
        "meta_ra_of_asc_node": 279.3143,
        "meta_arg_of_pericenter": 3.0809,
        "meta_mean_anomaly": 115.4408,
        "meta_ephemeris_type": 0,
        "meta_classification_type": "U",
        "meta_norad_cat_id": 33942,
        "meta_element_set_no": 999,
        "meta_rev_at_epoch": 88099,
        "meta_bstar": 0.00040286,
        "meta_mean_motion_dot": 1.195e-05,
        "meta_mean_motion_ddot": 0,
        "tle_line1": "1 33942U 93036EX  25344.30404090  .00001195  00000+0  40286-3 0  9998",
        "tle_line2": "2 33942  74.0366 279.3143 0020201   3.0809 115.4408 14.37983025880992"
      },
      "geometry": {
        "type": "Point",
        "coordinates": [
          -84.92859127782617,
          -10.82112414322143
        ]
      }
    },
    {
      "type": "Feature",
      "properties": {
        "norad_id": 33944,
        "name": "COSMOS 2251 DEB",
        "group": "cosmos-2251-debris",
        "lat": -45.44609261174712,
        "lon": 149.1994716329935,
        "alt_km": 853.5445871029478,
        "timestamp": "2025-12-10T21:43:22.484242+00:00",
        "meta_object_name": "COSMOS 2251 DEB",
        "meta_object_id": "1993-036EZ",
        "meta_epoch": "2025-12-10T09:42:18.611712",
        "meta_mean_motion": 14.37335372,
        "meta_eccentricity": 0.01121088,
        "meta_inclination": 74.0401,
        "meta_ra_of_asc_node": 313.2226,
        "meta_arg_of_pericenter": 53.4325,
        "meta_mean_anomaly": 104.2266,
        "meta_ephemeris_type": 0,
        "meta_classification_type": "U",
        "meta_norad_cat_id": 33944,
        "meta_element_set_no": 999,
        "meta_rev_at_epoch": 87994,
        "meta_bstar": 0.00054444336,
        "meta_mean_motion_dot": 1.72e-05,
        "meta_mean_motion_ddot": 0,
        "tle_line1": "1 33944U 93036EZ  25344.40438208  .00001720  00000+0  54444-3 0  9994",
        "tle_line2": "2 33944  74.0401 313.2226 0112108  53.4325 104.2266 14.37335372879941"
      },
      "geometry": {
        "type": "Point",
        "coordinates": [
          149.1994716329935,
          -45.44609261174712
        ]
      }
    },
    {
      "type": "Feature",
      "properties": {
        "norad_id": 33945,
        "name": "COSMOS 2251 DEB",
        "group": "cosmos-2251-debris",
        "lat": 36.743935968587465,
        "lon": -38.025865422787135,
        "alt_km": 757.8395056244144,
        "timestamp": "2025-12-10T21:43:22.484252+00:00",
        "meta_object_name": "COSMOS 2251 DEB",
        "meta_object_id": "1993-036FA",
        "meta_epoch": "2025-12-10T08:09:21.547872",
        "meta_mean_motion": 14.34597949,
        "meta_eccentricity": 0.00218071,
        "meta_inclination": 74.0296,
        "meta_ra_of_asc_node": 310.6646,
        "meta_arg_of_pericenter": 37.7393,
        "meta_mean_anomaly": 322.5284,
        "meta_ephemeris_type": 0,
        "meta_classification_type": "U",
        "meta_norad_cat_id": 33945,
        "meta_element_set_no": 999,
        "meta_rev_at_epoch": 87981,
        "meta_bstar": 0.00023987978,
        "meta_mean_motion_dot": 6.53e-06,
        "meta_mean_motion_ddot": 0,
        "tle_line1": "1 33945U 93036FA  25344.33983273  .00000653  00000+0  23988-3 0  9997",
        "tle_line2": "2 33945  74.0296 310.6646 0021807  37.7393 322.5284 14.34597949879814"
      },
      "geometry": {
        "type": "Point",
        "coordinates": [
          -38.025865422787135,
          36.743935968587465
        ]
      }
    },
    {
      "type": "Feature",
      "properties": {
        "norad_id": 33948,
        "name": "COSMOS 2251 DEB",
        "group": "cosmos-2251-debris",
        "lat": -56.91447872061087,
        "lon": 154.5639543097232,
        "alt_km": 792.826397168531,
        "timestamp": "2025-12-10T21:43:22.484262+00:00",
        "meta_object_name": "COSMOS 2251 DEB",
        "meta_object_id": "1993-036FD",
        "meta_epoch": "2025-12-10T07:13:34.759200",
        "meta_mean_motion": 14.35624748,
        "meta_eccentricity": 0.0022609,
        "meta_inclination": 74.0355,
        "meta_ra_of_asc_node": 309.6084,
        "meta_arg_of_pericenter": 26.1107,
        "meta_mean_anomaly": 334.118,
        "meta_ephemeris_type": 0,
        "meta_classification_type": "U",
        "meta_norad_cat_id": 33948,
        "meta_element_set_no": 999,
        "meta_rev_at_epoch": 87988,
        "meta_bstar": 0.00033876,
        "meta_mean_motion_dot": 9.54e-06,
        "meta_mean_motion_ddot": 0,
        "tle_line1": "1 33948U 93036FD  25344.30109675  .00000954  00000+0  33876-3 0  9994",
        "tle_line2": "2 33948  74.0355 309.6084 0022609  26.1107 334.1180 14.35624748879883"
      },
      "geometry": {
        "type": "Point",
        "coordinates": [
          154.5639543097232,
          -56.91447872061087
        ]
      }
    },
    {
      "type": "Feature",
      "properties": {
        "norad_id": 33971,
        "name": "COSMOS 2251 DEB",
        "group": "cosmos-2251-debris",
        "lat": -70.51002923764752,
        "lon": -156.91100268320545,
        "alt_km": 763.2700397428453,
        "timestamp": "2025-12-10T21:43:22.484272+00:00",
        "meta_object_name": "COSMOS 2251 DEB",
        "meta_object_id": "1993-036FE",
        "meta_epoch": "2025-12-10T06:11:10.563360",
        "meta_mean_motion": 14.39718544,
        "meta_eccentricity": 0.0018436,
        "meta_inclination": 74.0252,
        "meta_ra_of_asc_node": 258.3198,
        "meta_arg_of_pericenter": 359.2233,
        "meta_mean_anomaly": 168.3982,
        "meta_ephemeris_type": 0,
        "meta_classification_type": "U",
        "meta_norad_cat_id": 33971,
        "meta_element_set_no": 999,
        "meta_rev_at_epoch": 88103,
        "meta_bstar": 0.00048193,
        "meta_mean_motion_dot": 1.486e-05,
        "meta_mean_motion_ddot": 0,
        "tle_line1": "1 33971U 93036FE  25344.25776115  .00001486  00000+0  48193-3 0  9992",
        "tle_line2": "2 33971  74.0252 258.3198 0018436 359.2233 168.3982 14.39718544881033"
      },
      "geometry": {
        "type": "Point",
        "coordinates": [
          -156.91100268320545,
          -70.51002923764752
        ]
      }
    }
  ]
}